[{"OBJECT_NAME":"JILIN-1 GAOFEN 03D47","OBJECT_ID":"2022-167L","EPOCH":"2026-03-09T22:56:46.924224","MEAN_MOTION":15.31686941,"ECCENTRICITY":0.00089304,"INCLINATION":97.6835,"RA_OF_ASC_NODE":234.6581,"ARG_OF_PERICENTER":110.4031,"MEAN_ANOMALY":249.8169,"EPHEMERIS_TYPE":0,"CLASSIFICATION_TYPE":"U","NORAD_CAT_ID":54692,"ELEMENT_SET_NO":999,"REV_AT_EPOCH":18014,"BSTAR":0.00047294748,"MEAN_MOTION_DOT":0.00014417,"MEAN_MOTION_DDOT":0},{"OBJECT_NAME":"STARLINK-32375","OBJECT_ID":"2024-164W","EPOCH":"2026-03-09T08:26:21.859296","MEAN_MOTION":15.3019475,"ECCENTRICITY":0.00010907,"INCLINATION":53.159,"RA_OF_ASC_NODE":92.837,"ARG_OF_PERICENTER":77.8355,"MEAN_ANOMALY":282.2768,"EPHEMERIS_TYPE":0,"CLASSIFICATION_TYPE":"U","NORAD_CAT_ID":61070,"ELEMENT_SET_NO":999,"REV_AT_EPOCH":8342,"BSTAR":-2.782012e-5,"MEAN_MOTION_DOT":-1.183e-5,"MEAN_MOTION_DDOT":0}]
